{"type": "FeatureCollection", "features": [ {"type": "Feature", "properties": {"norad_id": 65304, "name": "DRAGON CRS-33", "group": "stations", "lat": 19.448073029047947, "lon": 98.6844870735982, "alt_km": 415.1765896204479, "timestamp": "2025-12-24T20:42:19.779135+00:00", "meta": {"OBJECT_NAME": "DRAGON CRS-33", "OBJECT_ID": "2025-186A", "EPOCH": "2025-12-24T05:07:18.077088", "MEAN_MOTION": 15.49773492, "ECCENTRICITY": 0.00031703, "INCLINATION": 51.6319, "RA_OF_ASC_NODE": 85.6574, "ARG_OF_PERICENTER": 294.284, "MEAN_ANOMALY": 65.7818, "EPHEMERIS_TYPE": 0, "CLASSIFICATION_TYPE": "U", "NORAD_CAT_ID": 65304, "ELEMENT_SET_NO": 999, "REV_AT_EPOCH": 11, "BSTAR": 0.00022737508, "MEAN_MOTION_DOT": 0.0001244, "MEAN_MOTION_DDOT": 0}, "tle": {"line1": "1 65304U 25186A   25358.21340367  .00012440  00000+0  22738-3 0  9994", "line2": "2 65304  51.6319  85.6574 0003170 294.2840  65.7818 15.49773492   118"}}, "geometry": {"type": "Point", "coordinates": [98.6844870735982, 19.448073029047947]}}, {"type": "Feature", "properties": {"norad_id": 65586, "name": "PROGRESS-MS 32", "group": "stations", "lat": 19.448073564389293, "lon": 98.6844875698074, "alt_km": 415.1765895622648, "timestamp": "2025-12-24T20:42:19.779146+00:00", "meta": {"OBJECT_NAME": "PROGRESS-MS 32", "OBJECT_ID": "2025-204A", "EPOCH": "2025-12-24T05:07:18.077088", "MEAN_MOTION": 15.49773492, "ECCENTRICITY": 0.00031703, "INCLINATION": 51.6319, "RA_OF_ASC_NODE": 85.6574, "ARG_OF_PERICENTER": 294.284, "MEAN_ANOMALY": 65.7818, "EPHEMERIS_TYPE": 0, "CLASSIFICATION_TYPE": "U", "NORAD_CAT_ID": 65586, "ELEMENT_SET_NO": 999, "REV_AT_EPOCH": 27, "BSTAR": 0.00022737508, "MEAN_MOTION_DOT": 0.0001244, "MEAN_MOTION_DDOT": 0}, "tle": {"line1": "1 65586U 25204A   25358.21340367  .00012440  00000+0  22738-3 0  9997", "line2": "2 65586  51.6319  85.6574 0003170 294.2840  65.7818 15.49773492   277"}}, "geometry": {"type": "Point", "coordinates": [98.6844875698074, 19.448073564389293]}}, {"type": "Feature", "properties": {"norad_id": 65616, "name": "CYGNUS NG-23", "group": "stations", "lat": 19.44807409973064, "lon": 98.68448806601658, "alt_km": 415.1765895040835, "timestamp": "2025-12-24T20:42:19.779157+00:00", "meta": {"OBJECT_NAME": "CYGNUS NG-23", "OBJECT_ID": "2025-208A", "EPOCH": "2025-12-24T05:07:18.077088", "MEAN_MOTION": 15.49773492, "ECCENTRICITY": 0.00031703, "INCLINATION": 51.6319, "RA_OF_ASC_NODE": 85.6574, "ARG_OF_PERICENTER": 294.284, "MEAN_ANOMALY": 65.7818, "EPHEMERIS_TYPE": 0, "CLASSIFICATION_TYPE": "U", "NORAD_CAT_ID": 65616, "ELEMENT_SET_NO": 999, "REV_AT_EPOCH": 22, "BSTAR": 0.00022737508, "MEAN_MOTION_DOT": 0.0001244, "MEAN_MOTION_DDOT": 0}, "tle": {"line1": "1 65616U 25208A   25358.21340367  .00012440  00000+0  22738-3 0  9995", "line2": "2 65616  51.6319  85.6574 0003170 294.2840  65.7818 15.49773492   226"}}, "geometry": {"type": "Point", "coordinates": [98.68448806601658, 19.44807409973064]}}, {"type": "Feature", "properties": {"norad_id": 65729, "name": "DRAGONFLY", "group": "stations", "lat": -11.743509704911181, "lon": 64.01306369699938, "alt_km": 338.47634428103447, "timestamp": "2025-12-24T20:42:19.779167+00:00", "meta": {"OBJECT_NAME": "DRAGONFLY", "OBJECT_ID": "1998-067XH", "EPOCH": "2025-12-23T20:25:05.087712", "MEAN_MOTION": 15.75691261, "ECCENTRICITY": 0.0007924, "INCLINATION": 51.6249, "RA_OF_ASC_NODE": 78.7101, "ARG_OF_PERICENTER": 343.6586, "MEAN_ANOMALY": 16.4157, "EPHEMERIS_TYPE": 0, "CLASSIFICATION_TYPE": "U", "NORAD_CAT_ID": 65729, "ELEMENT_SET_NO": 999, "REV_AT_EPOCH": 1491, "BSTAR": 0.0011534, "MEAN_MOTION_DOT": 0.00184258, "MEAN_MOTION_DDOT": 0}, "tle": {"line1": "1 65729U 98067XH  25357.85075333  .00184258  00000+0  11534-2 0  9998", "line2": "2 65729  51.6249  78.7101 0007924 343.6586  16.4157 15.75691261 14911"}}, "geometry": {"type": "Point", "coordinates": [64.01306369699938, -11.743509704911181]}}, {"type": "Feature", "properties": {"norad_id": 65731, "name": "1998-067XK", "group": "stations", "lat": 42.9067814307036, "lon": 123.05245531519704, "alt_km": 359.16849661634933, "timestamp": "2025-12-24T20:42:19.779177+00:00", "meta": {"OBJECT_NAME": "1998-067XK", "OBJECT_ID": "1998-067XK", "EPOCH": "2025-12-24T05:09:13.323456", "MEAN_MOTION": 15.67922599, "ECCENTRICITY": 0.0005005, "INCLINATION": 51.629, "RA_OF_ASC_NODE": 78.9215, "ARG_OF_PERICENTER": 318.0201, "MEAN_ANOMALY": 42.0411, "EPHEMERIS_TYPE": 0, "CLASSIFICATION_TYPE": "U", "NORAD_CAT_ID": 65731, "ELEMENT_SET_NO": 999, "REV_AT_EPOCH": 1494, "BSTAR": 0.00097770635, "MEAN_MOTION_DOT": 0.00111192, "MEAN_MOTION_DDOT": 0}, "tle": {"line1": "1 65731U 98067XK  25358.21473754  .00111192  00000+0  97771-3 0  9996", "line2": "2 65731  51.6290  78.9215 0005005 318.0201  42.0411 15.67922599 14949"}}, "geometry": {"type": "Point", "coordinates": [123.05245531519704, 42.9067814307036]}}, {"type": "Feature", "properties": {"norad_id": 65732, "name": "RSP-03", "group": "stations", "lat": 3.6097973339227427, "lon": -108.24875713353984, "alt_km": 357.700946602823, "timestamp": "2025-12-24T20:42:19.779189+00:00", "meta": {"OBJECT_NAME": "RSP-03", "OBJECT_ID": "1998-067XL", "EPOCH": "2025-12-24T06:13:41.867904", "MEAN_MOTION": 15.71560433, "ECCENTRICITY": 0.00059657, "INCLINATION": 51.6259, "RA_OF_ASC_NODE": 77.7058, "ARG_OF_PERICENTER": 324.9345, "MEAN_ANOMALY": 35.126, "EPHEMERIS_TYPE": 0, "CLASSIFICATION_TYPE": "U", "NORAD_CAT_ID": 65732, "ELEMENT_SET_NO": 999, "REV_AT_EPOCH": 1497, "BSTAR": 0.0011365704, "MEAN_MOTION_DOT": 0.00151258, "MEAN_MOTION_DDOT": 0}, "tle": {"line1": "1 65732U 98067XL  25358.25951236  .00151258  00000+0  11366-2 0  9999", "line2": "2 65732  51.6259  77.7058 0005965 324.9345  35.1260 15.71560433 14975"}}, "geometry": {"type": "Point", "coordinates": [-108.24875713353984, 3.6097973339227427]}}, {"type": "Feature", "properties": {"norad_id": 65733, "name": "GHS-01", "group": "stations", "lat": 39.07906633567678, "lon": 112.66099003513196, "alt_km": 321.542670241869, "timestamp": "2025-12-24T20:42:19.779199+00:00", "meta": {"OBJECT_NAME": "GHS-01", "OBJECT_ID": "1998-067XM", "EPOCH": "2025-12-23T11:05:04.304832", "MEAN_MOTION": 15.79591896, "ECCENTRICITY": 0.00088003, "INCLINATION": 51.6283, "RA_OF_ASC_NODE": 79.8731, "ARG_OF_PERICENTER": 346.0913, "MEAN_ANOMALY": 13.9844, "EPHEMERIS_TYPE": 0, "CLASSIFICATION_TYPE": "U", "NORAD_CAT_ID": 65733, "ELEMENT_SET_NO": 999, "REV_AT_EPOCH": 1487, "BSTAR": 0.0014327729, "MEAN_MOTION_DOT": 0.00275731, "MEAN_MOTION_DDOT": 0}, "tle": {"line1": "1 65733U 98067XM  25357.46185538  .00275731  00000+0  14328-2 0  9990", "line2": "2 65733  51.6283  79.8731 0008800 346.0913  13.9844 15.79591896 14877"}}, "geometry": {"type": "Point", "coordinates": [112.66099003513196, 39.07906633567678]}}, {"type": "Feature", "properties": {"norad_id": 65941, "name": "YOTSUBA-KULOVER", "group": "stations", "lat": -48.01932006213024, "lon": -39.31514854134998, "alt_km": 389.4348630551822, "timestamp": "2025-12-24T20:42:19.779209+00:00", "meta": {"OBJECT_NAME": "YOTSUBA-KULOVER", "OBJECT_ID": "1998-067XN", "EPOCH": "2025-12-24T05:48:16.557984", "MEAN_MOTION": 15.6097178, "ECCENTRICITY": 0.00023493, "INCLINATION": 51.6293, "RA_OF_ASC_NODE": 82.1031, "ARG_OF_PERICENTER": 352.2605, "MEAN_ANOMALY": 7.8352, "EPHEMERIS_TYPE": 0, "CLASSIFICATION_TYPE": "U", "NORAD_CAT_ID": 65941, "ELEMENT_SET_NO": 999, "REV_AT_EPOCH": 1165, "BSTAR": 0.00086929736, "MEAN_MOTION_DOT": 0.00074548, "MEAN_MOTION_DDOT": 0}, "tle": {"line1": "1 65941U 98067XN  25358.24185831  .00074548  00000+0  86930-3 0  9996", "line2": "2 65941  51.6293  82.1031 0002349 352.2605   7.8352 15.60971780 11651"}}, "geometry": {"type": "Point", "coordinates": [-39.31514854134998, -48.01932006213024]}}, {"type": "Feature", "properties": {"norad_id": 65942, "name": "BOTAN", "group": "stations", "lat": 22.603321360120344, "lon": 97.19556164207324, "alt_km": 368.26781802221285, "timestamp": "2025-12-24T20:42:19.779220+00:00", "meta": {"OBJECT_NAME": "BOTAN", "OBJECT_ID": "1998-067XP", "EPOCH": "2025-12-23T23:07:45.899616", "MEAN_MOTION": 15.65195853, "ECCENTRICITY": 0.00032883, "INCLINATION": 51.6282, "RA_OF_ASC_NODE": 82.4941, "ARG_OF_PERICENTER": 330.2787, "MEAN_ANOMALY": 29.802, "EPHEMERIS_TYPE": 0, "CLASSIFICATION_TYPE": "U", "NORAD_CAT_ID": 65942, "ELEMENT_SET_NO": 999, "REV_AT_EPOCH": 1162, "BSTAR": 0.0010936719, "MEAN_MOTION_DOT": 0.00111413, "MEAN_MOTION_DDOT": 0}, "tle": {"line1": "1 65942U 98067XP  25357.96372569  .00111413  00000+0  10937-2 0  9997", "line2": "2 65942  51.6282  82.4941 0003288 330.2787  29.8020 15.65195853 11620"}}, "geometry": {"type": "Point", "coordinates": [97.19556164207324, 22.603321360120344]}}, {"type": "Feature", "properties": {"norad_id": 65943, "name": "E-KAGAKU-1", "group": "stations", "lat": -47.80873635481374, "lon": -40.09521672070525, "alt_km": 388.55504695661057, "timestamp": "2025-12-24T20:42:19.779230+00:00", "meta": {"OBJECT_NAME": "E-KAGAKU-1", "OBJECT_ID": "1998-067XQ", "EPOCH": "2025-12-22T10:46:55.533504", "MEAN_MOTION": 15.60710313, "ECCENTRICITY": 0.00012968, "INCLINATION": 51.6319, "RA_OF_ASC_NODE": 91.1385, "ARG_OF_PERICENTER": 295.9007, "MEAN_ANOMALY": 64.1852, "EPHEMERIS_TYPE": 0, "CLASSIFICATION_TYPE": "U", "NORAD_CAT_ID": 65943, "ELEMENT_SET_NO": 999, "REV_AT_EPOCH": 1137, "BSTAR": 0.00086344374, "MEAN_MOTION_DOT": 0.00073283, "MEAN_MOTION_DDOT": 0}, "tle": {"line1": "1 65943U 98067XQ  25356.44925386  .00073283  00000+0  86344-3 0  9999", "line2": "2 65943  51.6319  91.1385 0001296 295.9007  64.1852 15.60710313 11376"}}, "geometry": {"type": "Point", "coordinates": [-40.09521672070525, -47.80873635481374]}}]}